CCSDS_OMM_VERS = 2.0
CREATION_DATE  = 
ORIGINATOR     = 

OBJECT_NAME    = SL-3 R/B
OBJECT_ID      = 1982-079B
CENTER_NAME    = EARTH
REF_FRAME      = TEME
TIME_SYSTEM    = UTC
MEAN_ELEMENT_THEORY = SGP/SGP4

EPOCH          = 2026-02-02T14:49:47.918208
MEAN_MOTION    = 15.24291511
ECCENTRICITY   = .00242449
INCLINATION    = 81.1436
RA_OF_ASC_NODE = 234.4774
ARG_OF_PERICENTER = 285.8334
MEAN_ANOMALY   = 74.0226

EPHEMERIS_TYPE = 0
CLASSIFICATION_TYPE = U
NORAD_CAT_ID   = 13403
ELEMENT_SET_NO = 999
REV_AT_EPOCH   = 37235
BSTAR          = .2226283E-3
MEAN_MOTION_DOT = .5508E-4
MEAN_MOTION_DDOT = 0

CCSDS_OMM_VERS = 2.0
CREATION_DATE  = 
ORIGINATOR     = 

OBJECT_NAME    = SL-14 R/B
OBJECT_ID      = 1982-092B
CENTER_NAME    = EARTH
REF_FRAME      = TEME
TIME_SYSTEM    = UTC
MEAN_ELEMENT_THEORY = SGP/SGP4

EPOCH          = 2026-02-02T15:13:28.888032
MEAN_MOTION    = 14.86624647
ECCENTRICITY   = .00216541
INCLINATION    = 82.5696
RA_OF_ASC_NODE = 174.1774
ARG_OF_PERICENTER = 59.8255
MEAN_ANOMALY   = 310.8983

EPHEMERIS_TYPE = 0
CLASSIFICATION_TYPE = U
NORAD_CAT_ID   = 13553
ELEMENT_SET_NO = 999
REV_AT_EPOCH   = 32372
BSTAR          = .66884884E-4
MEAN_MOTION_DOT = .621E-5
MEAN_MOTION_DDOT = 0

CCSDS_OMM_VERS = 2.0
CREATION_DATE  = 
ORIGINATOR     = 

OBJECT_NAME    = SL-3 R/B
OBJECT_ID      = 1983-010B
CENTER_NAME    = EARTH
REF_FRAME      = TEME
TIME_SYSTEM    = UTC
MEAN_ELEMENT_THEORY = SGP/SGP4

EPOCH          = 2026-02-02T11:30:47.306880
MEAN_MOTION    = 15.45110316
ECCENTRICITY   = .00174327
INCLINATION    = 81.1012
RA_OF_ASC_NODE = 45.3771
ARG_OF_PERICENTER = 164.1278
MEAN_ANOMALY   = 196.0517

EPHEMERIS_TYPE = 0
CLASSIFICATION_TYPE = U
NORAD_CAT_ID   = 13819
ELEMENT_SET_NO = 999
REV_AT_EPOCH   = 35250
BSTAR          = .28984305E-3
MEAN_MOTION_DOT = .13829E-3
MEAN_MOTION_DDOT = 0

CCSDS_OMM_VERS = 2.0
CREATION_DATE  = 
ORIGINATOR     = 

OBJECT_NAME    = SL-3 R/B
OBJECT_ID      = 1983-075B
CENTER_NAME    = EARTH
REF_FRAME      = TEME
TIME_SYSTEM    = UTC
MEAN_ELEMENT_THEORY = SGP/SGP4

EPOCH          = 2026-02-02T13:16:02.022816
MEAN_MOTION    = 15.37485327
ECCENTRICITY   = .00220331
INCLINATION    = 97.6120
RA_OF_ASC_NODE = 36.8312
ARG_OF_PERICENTER = 1.2052
MEAN_ANOMALY   = 358.9241

EPHEMERIS_TYPE = 0
CLASSIFICATION_TYPE = U
NORAD_CAT_ID   = 14208
ELEMENT_SET_NO = 999
REV_AT_EPOCH   = 32475
BSTAR          = .36737602E-3
MEAN_MOTION_DOT = .13536E-3
MEAN_MOTION_DDOT = 0

CCSDS_OMM_VERS = 2.0
CREATION_DATE  = 
ORIGINATOR     = 

OBJECT_NAME    = COSMOS 1536
OBJECT_ID      = 1984-013A
CENTER_NAME    = EARTH
REF_FRAME      = TEME
TIME_SYSTEM    = UTC
MEAN_ELEMENT_THEORY = SGP/SGP4

EPOCH          = 2026-02-02T09:15:29.490336
MEAN_MOTION    = 15.23335008
ECCENTRICITY   = .00153555
INCLINATION    = 82.5478
RA_OF_ASC_NODE = 142.9210
ARG_OF_PERICENTER = 50.9744
MEAN_ANOMALY   = 309.2857

EPHEMERIS_TYPE = 0
CLASSIFICATION_TYPE = U
NORAD_CAT_ID   = 14699
ELEMENT_SET_NO = 999
REV_AT_EPOCH   = 26724
BSTAR          = .30278022E-3
MEAN_MOTION_DOT = .7244E-4
MEAN_MOTION_DDOT = 0

CCSDS_OMM_VERS = 2.0
CREATION_DATE  = 
ORIGINATOR     = 

OBJECT_NAME    = SL-14 R/B
OBJECT_ID      = 1984-027B
CENTER_NAME    = EARTH
REF_FRAME      = TEME
TIME_SYSTEM    = UTC
MEAN_ELEMENT_THEORY = SGP/SGP4

EPOCH          = 2026-02-02T03:19:31.217664
MEAN_MOTION    = 14.85940144
ECCENTRICITY   = .00195476
INCLINATION    = 82.5411
RA_OF_ASC_NODE = 278.3616
ARG_OF_PERICENTER = 91.0661
MEAN_ANOMALY   = 269.2795

EPHEMERIS_TYPE = 0
CLASSIFICATION_TYPE = U
NORAD_CAT_ID   = 14820
ELEMENT_SET_NO = 999
REV_AT_EPOCH   = 24235
BSTAR          = .50615891E-4
MEAN_MOTION_DOT = .468E-5
MEAN_MOTION_DDOT = 0

CCSDS_OMM_VERS = 2.0
CREATION_DATE  = 
ORIGINATOR     = 

OBJECT_NAME    = SL-8 R/B
OBJECT_ID      = 1985-006B
CENTER_NAME    = EARTH
REF_FRAME      = TEME
TIME_SYSTEM    = UTC
MEAN_ELEMENT_THEORY = SGP/SGP4

EPOCH          = 2026-02-02T13:00:01.475136
MEAN_MOTION    = 14.37764161
ECCENTRICITY   = .00196416
INCLINATION    = 74.0476
RA_OF_ASC_NODE = 325.8218
ARG_OF_PERICENTER = 250.1776
MEAN_ANOMALY   = 282.8350

EPHEMERIS_TYPE = 0
CLASSIFICATION_TYPE = U
NORAD_CAT_ID   = 15483
ELEMENT_SET_NO = 999
REV_AT_EPOCH   = 14897
BSTAR          = .10234004E-3
MEAN_MOTION_DOT = .282E-5
MEAN_MOTION_DDOT = 0

CCSDS_OMM_VERS = 2.0
CREATION_DATE  = 
ORIGINATOR     = 

OBJECT_NAME    = SL-12 R/B(2)
OBJECT_ID      = 1985-042D
CENTER_NAME    = EARTH
REF_FRAME      = TEME
TIME_SYSTEM    = UTC
MEAN_ELEMENT_THEORY = SGP/SGP4

EPOCH          = 2026-02-02T15:39:05.808384
MEAN_MOTION    = 14.21971584
ECCENTRICITY   = .00353173
INCLINATION    = 71.1082
RA_OF_ASC_NODE = 161.7505
ARG_OF_PERICENTER = 183.8907
MEAN_ANOMALY   = 187.4796

EPHEMERIS_TYPE = 0
CLASSIFICATION_TYPE = U
NORAD_CAT_ID   = 15772
ELEMENT_SET_NO = 999
REV_AT_EPOCH   = 10941
BSTAR          = .72161256E-4
MEAN_MOTION_DOT = .113E-5
MEAN_MOTION_DDOT = 0

CCSDS_OMM_VERS = 2.0
CREATION_DATE  = 
ORIGINATOR     = 

OBJECT_NAME    = SL-14 R/B
OBJECT_ID      = 1985-069B
CENTER_NAME    = EARTH
REF_FRAME      = TEME
TIME_SYSTEM    = UTC
MEAN_ELEMENT_THEORY = SGP/SGP4

EPOCH          = 2026-02-02T11:17:47.956416
MEAN_MOTION    = 14.86390311
ECCENTRICITY   = .00175857
INCLINATION    = 82.5239
RA_OF_ASC_NODE = 58.0589
ARG_OF_PERICENTER = 312.5052
MEAN_ANOMALY   = 47.4679

EPHEMERIS_TYPE = 0
CLASSIFICATION_TYPE = U
NORAD_CAT_ID   = 15945
ELEMENT_SET_NO = 999
REV_AT_EPOCH   = 16760
BSTAR          = .55777647E-4
MEAN_MOTION_DOT = .517E-5
MEAN_MOTION_DDOT = 0

CCSDS_OMM_VERS = 2.0
CREATION_DATE  = 
ORIGINATOR     = 

OBJECT_NAME    = SL-16 R/B
OBJECT_ID      = 1985-097B
CENTER_NAME    = EARTH
REF_FRAME      = TEME
TIME_SYSTEM    = UTC
MEAN_ELEMENT_THEORY = SGP/SGP4

EPOCH          = 2026-02-02T12:55:55.203168
MEAN_MOTION    = 14.16594788
ECCENTRICITY   = .00093285
INCLINATION    = 71.0012
RA_OF_ASC_NODE = 214.5524
ARG_OF_PERICENTER = 301.0479
MEAN_ANOMALY   = 119.3606

EPHEMERIS_TYPE = 0
CLASSIFICATION_TYPE = U
NORAD_CAT_ID   = 16182
ELEMENT_SET_NO = 999
REV_AT_EPOCH   = 8225
BSTAR          = .13525901E-3
MEAN_MOTION_DOT = .222E-5
MEAN_MOTION_DDOT = 0

CCSDS_OMM_VERS = 2.0
CREATION_DATE  = 
ORIGINATOR     = 

OBJECT_NAME    = SL-14 R/B
OBJECT_ID      = 1986-006B
CENTER_NAME    = EARTH
REF_FRAME      = TEME
TIME_SYSTEM    = UTC
MEAN_ELEMENT_THEORY = SGP/SGP4

EPOCH          = 2026-02-02T15:48:48.587616
MEAN_MOTION    = 14.86763568
ECCENTRICITY   = .00774698
INCLINATION    = 82.5278
RA_OF_ASC_NODE = 292.7074
ARG_OF_PERICENTER = 29.8608
MEAN_ANOMALY   = 330.6994

EPHEMERIS_TYPE = 0
CLASSIFICATION_TYPE = U
NORAD_CAT_ID   = 16496
ELEMENT_SET_NO = 999
REV_AT_EPOCH   = 14400
BSTAR          = .88866633E-4
MEAN_MOTION_DOT = .862E-5
MEAN_MOTION_DDOT = 0

CCSDS_OMM_VERS = 2.0
CREATION_DATE  = 
ORIGINATOR     = 

OBJECT_NAME    = COSMOS 1743
OBJECT_ID      = 1986-034A
CENTER_NAME    = EARTH
REF_FRAME      = TEME
TIME_SYSTEM    = UTC
MEAN_ELEMENT_THEORY = SGP/SGP4

EPOCH          = 2026-02-02T11:49:16.967136
MEAN_MOTION    = 15.55971238
ECCENTRICITY   = .00053435
INCLINATION    = 82.5342
RA_OF_ASC_NODE = 110.6942
ARG_OF_PERICENTER = 69.2096
MEAN_ANOMALY   = 290.9730

EPHEMERIS_TYPE = 0
CLASSIFICATION_TYPE = U
NORAD_CAT_ID   = 16719
ELEMENT_SET_NO = 999
REV_AT_EPOCH   = 17477
BSTAR          = .48710285E-3
MEAN_MOTION_DOT = .33972E-3
MEAN_MOTION_DDOT = 0

