SL-3 R/B                
1 13403U 82079B   26033.61791572  .00005508  00000+0  22263-3 0  9994
2 13403  81.1436 234.4774 0024244 285.8334  74.0226 15.24291511372358
SL-14 R/B               
1 13553U 82092B   26033.63436213  .00000621  00000+0  66885-4 0  9995
2 13553  82.5696 174.1774 0021654  59.8255 310.8983 14.86624647323725
SL-3 R/B                
1 13819U 83010B   26033.47971420  .00013829  00000+0  28984-3 0  9998
2 13819  81.1012  45.3771 0017432 164.1278 196.0517 15.45110316352501
SL-3 R/B                
1 14208U 83075B   26033.55280119  .00013536  00000+0  36738-3 0  9990
2 14208  97.6120  36.8312 0022033   1.2052 358.9241 15.37485327324753
COSMOS 1536             
1 14699U 84013A   26033.38575799  .00007244  00000+0  30278-3 0  9991
2 14699  82.5478 142.9210 0015355  50.9744 309.2857 15.23335008267247
SL-14 R/B               
1 14820U 84027B   26033.13855576  .00000468  00000+0  50616-4 0  9999
2 14820  82.5411 278.3616 0019547  91.0661 269.2795 14.85940144242356
SL-8 R/B                
1 15483U 85006B   26033.54168374  .00000282  00000+0  10234-3 0  9996
2 15483  74.0476 325.8218 0019641 250.1776 282.8350 14.37764161148976
SL-12 R/B(2)            
1 15772U 85042D   26033.65215056  .00000113  00000+0  72161-4 0  9990
2 15772  71.1082 161.7505 0035317 183.8907 187.4796 14.21971584109412
SL-14 R/B               
1 15945U 85069B   26033.47069394  .00000517  00000+0  55778-4 0  9996
2 15945  82.5239  58.0589 0017585 312.5052  47.4679 14.86390311167607
SL-16 R/B               
1 16182U 85097B   26033.53883337  .00000222  00000+0  13526-3 0  9996
2 16182  71.0012 214.5524 0009328 301.0479 119.3606 14.16594788 82256
SL-14 R/B               
1 16496U 86006B   26033.65889569  .00000862  00000+0  88867-4 0  9992
2 16496  82.5278 292.7074 0077469  29.8608 330.6994 14.86763568144004
COSMOS 1743             
1 16719U 86034A   26033.49255749  .00033972  00000+0  48710-3 0  9990
2 16719  82.5342 110.6942 0005343  69.2096 290.9730 15.55971238174772
